[{"OBJECT_NAME":"STARLINK-36110","OBJECT_ID":"2025-286W","EPOCH":"2026-03-09T05:49:39.300672","MEAN_MOTION":15.30184781,"ECCENTRICITY":0.00011068,"INCLINATION":53.1609,"RA_OF_ASC_NODE":0.856,"ARG_OF_PERICENTER":73.5701,"MEAN_ANOMALY":286.5422,"EPHEMERIS_TYPE":0,"CLASSIFICATION_TYPE":"U","NORAD_CAT_ID":66945,"ELEMENT_SET_NO":999,"REV_AT_EPOCH":1534,"BSTAR":0.00039006813,"MEAN_MOTION_DOT":0.00011206,"MEAN_MOTION_DDOT":0},{"OBJECT_NAME":"COSMOS 2535 DEB","OBJECT_ID":"2019-039M","EPOCH":"2026-03-08T03:25:35.903424","MEAN_MOTION":15.28322551,"ECCENTRICITY":0.0014917,"INCLINATION":97.5619,"RA_OF_ASC_NODE":139.2722,"ARG_OF_PERICENTER":329.0964,"MEAN_ANOMALY":30.9396,"EPHEMERIS_TYPE":0,"CLASSIFICATION_TYPE":"U","NORAD_CAT_ID":44641,"ELEMENT_SET_NO":999,"REV_AT_EPOCH":35167,"BSTAR":0.0011539757,"MEAN_MOTION_DOT":0.0003196,"MEAN_MOTION_DDOT":0}]
